NORAD_CAT_ID,OBJECT_NAME,OBJECT_TYPE,EPOCH,MEAN_MOTION,ECCENTRICITY,INCLINATION,RA_OF_ASC_NODE,ARG_OF_PERICENTER,MEAN_ANOMALY,BSTAR,MEAN_MOTION_DOT,MEAN_MOTION_DDOT,TLE_LINE0,TLE_LINE1,TLE_LINE2,SEMIMAJOR_AXIS,PERIOD,APOGEE,PERIGEE,DECAYED
51991.0,STARLINK-3652,PAYLOAD,2024-04-24 12:14:20,15.08837712,9.91e-05,53.2165,230.5203,107.1443,252.9658,6.9344e-05,8.16e-06,0.0,0 STARLINK-3652,1 51991U 22025AM  24115.50995944  .00000816  00000-0  69344-4 0  9999,2 51991  53.2165 230.5203 0000991 107.1443 252.9658 15.08837712118866,6917.887,95.438,540.438,539.067,0.0
51991.0,STARLINK-3652,PAYLOAD,2024-04-24 13:49:43,15.08838053,0.0001029,53.2172,230.2235,103.3325,256.7782,8.5141e-05,1.067e-05,0.0,0 STARLINK-3652,1 51991U 22025AM  24115.57619921  .00001067  00000-0  85141-4 0  9996,2 51991  53.2172 230.2235 0001029 103.3325 256.7782 15.08838053117785,6917.886,95.438,540.463,539.039,0.0
51991.0,STARLINK-3652,PAYLOAD,2024-04-24 15:25:06,15.08839834,0.0001237,53.2185,229.9278,71.1114,289.0012,0.00012608,1.719e-05,0.0,0 STARLINK-3652,1 51991U 22025AM  24115.64243889  .00001719  00000-0  12608-3 0  9991,2 51991  53.2185 229.9278 0001237  71.1114 289.0012 15.08839834117794,6917.881,95.438,540.602,538.89,0.0
51991.0,STARLINK-3652,PAYLOAD,2024-04-25 13:40:31,15.0883362,0.000122,53.2178,225.7642,99.3635,260.7495,7.8749e-05,9.65e-06,0.0,0 STARLINK-3652,1 51991U 22025AM  24116.56980381  .00000965  00000-0  78749-4 0  9999,2 51991  53.2178 225.7642 0001220  99.3635 260.7495 15.08833620117931,6917.9,95.438,540.609,538.921,0.0
51991.0,STARLINK-3652,PAYLOAD,2024-04-26 13:31:17,15.08845354,0.0001161,53.2178,221.3027,95.8707,264.2417,6.8065e-05,7.96e-06,0.0,0 STARLINK-3652,1 51991U 22025AM  24117.56339642  .00000796  00000-0  68065-4 0  9990,2 51991  53.2178 221.3027 0001161  95.8707 264.2417 15.08845354119173,6917.864,95.437,540.532,538.926,0.0
51991.0,STARLINK-3652,PAYLOAD,2024-04-26 16:42:03,15.08853195,0.0001136,53.2171,220.7066,104.4839,255.628,6.1249e-05,6.87e-06,0.0,0 STARLINK-3652,1 51991U 22025AM  24117.69587068  .00000687  00000-0  61249-4 0  9997,2 51991  53.2171 220.7066 0001136 104.4839 255.6280 15.08853195118103,6917.84,95.437,540.491,538.919,0.0
51991.0,STARLINK-3652,PAYLOAD,2024-04-27 13:22:04,15.08834808,0.0001144,53.2175,216.8434,103.3631,256.7488,3.6473e-05,2.93e-06,0.0,0 STARLINK-3652,1 51991U 22025AM  24118.55700217  .00000293  00000-0  36473-4 0  9990,2 51991  53.2175 216.8434 0001144 103.3631 256.7488 15.08834808119326,6917.896,95.438,540.553,538.97,0.0
51991.0,STARLINK-3652,PAYLOAD,2024-04-27 16:32:51,15.08836016,0.0001151,53.2178,216.2479,103.099,257.013,3.5834e-05,2.82e-06,0.0,0 STARLINK-3652,1 51991U 22025AM  24118.68948162  .00000282  00000-0  35834-4 0  9995,2 51991  53.2178 216.2479 0001151 103.0990 257.0130 15.08836016118257,6917.893,95.438,540.554,538.961,0.0
51991.0,STARLINK-3652,PAYLOAD,2024-04-28 13:12:52,15.08833306,0.0001032,53.216,212.3835,83.0983,277.0126,-0.00011398,-2.101e-05,0.0,0 STARLINK-3652,1 51991U 22025AM  24119.55061110 -.00002101  00000-0 -11398-3 0  9993,2 51991  53.2160 212.3835 0001032  83.0983 277.0126 15.08833306119479,6917.901,95.438,540.48,539.052,0.0
51991.0,STARLINK-3652,PAYLOAD,2024-04-29 13:03:39,15.08835739,0.0001109,53.2169,207.9247,100.5654,259.5463,0.00010031,1.309e-05,0.0,0 STARLINK-3652,1 51991U 22025AM  24120.54420587  .00001309  00000-0  10031-3 0  9991,2 51991  53.2169 207.9247 0001109 100.5654 259.5463 15.08835739119628,6917.893,95.438,540.526,538.991,0.0
51991.0,STARLINK-3652,PAYLOAD,2024-04-29 22:35:57,15.08843664,0.000111,53.2172,206.1398,94.9039,265.208,0.00012468,1.697e-05,0.0,0 STARLINK-3652,1 51991U 22025AM  24120.94164038  .00001697  00000-0  12468-3 0  9997,2 51991  53.2172 206.1398 0001110  94.9039 265.2080 15.08843664119686,6917.869,95.437,540.502,538.966,0.0
51991.0,STARLINK-3652,PAYLOAD,2024-04-30 11:19:03,15.08830737,0.0001344,53.2189,203.7628,99.3636,260.7509,0.00012016,1.624e-05,0.0,0 STARLINK-3652,1 51991U 22025AM  24121.47157046  .00001624  00000-0  12016-3 0  9996,2 51991  53.2189 203.7628 0001344  99.3636 260.7509 15.08830737119766,6917.909,95.438,540.703,538.844,0.0
51991.0,STARLINK-3652,PAYLOAD,2024-04-30 12:54:26,15.08833444,0.0001314,53.2188,203.465,97.4531,262.661,0.00012489,1.7e-05,0.0,0 STARLINK-3652,1 51991U 22025AM  24121.53780867  .00001700  00000-0  12489-3 0  9995,2 51991  53.2188 203.4650 0001314  97.4531 262.6610 15.08833444118689,6917.9,95.438,540.674,538.856,0.0
51991.0,STARLINK-3652,PAYLOAD,2024-05-02 11:00:36,15.08844447,0.0001312,53.2176,194.8397,87.1885,272.9257,7.4557e-05,8.99e-06,0.0,0 STARLINK-3652,1 51991U 22025AM  24123.45875895  .00000899  00000-0  74557-4 0  9997,2 51991  53.2176 194.8397 0001312  87.1885 272.9257 15.08844447120064,6917.867,95.437,540.639,538.824,0.0
51991.0,STARLINK-3652,PAYLOAD,2024-05-02 14:11:23,15.0884219,0.0001002,53.2158,194.244,83.615,276.4957,-1.393e-05,-5.09e-06,0.0,0 STARLINK-3652,1 51991U 22025AM  24123.59124171 -.00000509  00000-0 -13930-4 0  9994,2 51991  53.2158 194.2440 0001002  83.6150 276.4957 15.08842190118997,6917.874,95.437,540.432,539.046,0.0
51991.0,STARLINK-3652,PAYLOAD,2024-05-03 10:51:23,15.08843382,0.0001042,53.2148,190.3793,78.9266,281.1843,8.4703e-05,1.061e-05,0.0,0 STARLINK-3652,1 51991U 22025AM  24124.45235282  .00001061  00000-0  84703-4 0  9994,2 51991  53.2148 190.3793 0001042  78.9266 281.1843 15.08843382119120,6917.87,95.437,540.456,539.014,0.0
51991.0,STARLINK-3652,PAYLOAD,2024-05-03 21:59:04,15.08849076,0.000117,53.2154,188.2985,80.3284,279.784,0.00012397,1.686e-05,0.0,0 STARLINK-3652,1 51991U 22025AM  24124.91602585  .00001686  00000-0  12397-3 0  9991,2 51991  53.2154 188.2985 0001170  80.3284 279.7840 15.08849076119198,6917.853,95.437,540.527,538.908,0.0
51991.0,STARLINK-3652,PAYLOAD,2024-05-04 04:20:38,15.08841184,0.0002244,53.215,187.1084,87.98,272.1449,5.6665e-05,6.14e-06,0.0,0 STARLINK-3652,1 51991U 22025AM  24125.18099674  .00000614  00000-0  56665-4 0  9997,2 51991  53.2150 187.1084 0002244  87.9800 272.1449 15.08841184120323,6917.877,95.437,541.294,538.189,0.0
51991.0,STARLINK-3652,PAYLOAD,2024-05-04 10:42:12,15.08821882,0.0001233,53.2162,185.9194,92.6721,267.4412,-0.00010159,-1.903e-05,0.0,0 STARLINK-3652,1 51991U 22025AM  24125.44597354 -.00001903  00000-0 -10159-3 0  9995,2 51991  53.2162 185.9194 0001233  92.6721 267.4412 15.08821882120360,6917.936,95.439,540.654,538.948,0.0
51991.0,STARLINK-3652,PAYLOAD,2024-05-05 08:57:35,15.08835596,0.000131,53.2177,181.7567,92.3525,267.7617,-6.3161e-05,-1.293e-05,0.0,0 STARLINK-3652,1 51991U 22025AM  24126.37333044 -.00001293  00000-0 -63161-4 0  9996,2 51991  53.2177 181.7567 0001310  92.3525 267.7617 15.08835596120502,6917.894,95.438,540.665,538.853,0.0
51991.0,STARLINK-3652,PAYLOAD,2024-05-05 20:05:17,15.08846524,0.0001274,53.2171,179.6753,90.8846,269.2292,-3.2047e-05,-7.98e-06,0.0,0 STARLINK-3652,1 51991U 22025AM  24126.83700278 -.00000798  00000-0 -32047-4 0  9992,2 51991  53.2171 179.6753 0001274  90.8846 269.2292 15.08846524120573,6917.86,95.437,540.607,538.844,0.0
51991.0,STARLINK-3652,PAYLOAD,2024-05-06 10:23:45,15.0883939,0.0001289,53.2162,176.9993,96.2178,263.8961,0.00027843,4.146e-05,0.0,0 STARLINK-3652,1 51991U 22025AM  24127.43316098  .00004146  00000-0  27843-3 0  9998,2 51991  53.2162 176.9993 0001289  96.2178 263.8961 15.08839390119577,6917.882,95.438,540.639,538.856,0.0
51991.0,STARLINK-3652,PAYLOAD,2024-05-06 19:56:03,15.08851207,0.0001343,53.2164,175.2151,97.8627,262.2518,0.0002795,4.164e-05,0.0,0 STARLINK-3652,1 51991U 22025AM  24127.83059305  .00004164  00000-0  27950-3 0  9996,2 51991  53.2164 175.2151 0001343  97.8627 262.2518 15.08851207119633,6917.846,95.437,540.64,538.782,0.0
51991.0,STARLINK-3652,PAYLOAD,2024-05-07 02:17:36,15.08845417,0.0001909,53.2173,174.0251,94.5709,265.5501,0.00017249,2.459e-05,0.0,0 STARLINK-3652,1 51991U 22025AM  24128.09556070  .00002459  00000-0  17249-3 0  9991,2 51991  53.2173 174.0251 0001909  94.5709 265.5501 15.08845417120764,6917.864,95.437,541.049,538.408,0.0
51991.0,STARLINK-3652,PAYLOAD,2024-05-07 10:14:33,15.08837291,0.0001191,53.2154,172.5385,90.3101,269.8027,2.6114e-05,1.28e-06,0.0,0 STARLINK-3652,1 51991U 22025AM  24128.42677128  .00000128  00000-0  26114-4 0  9999,2 51991  53.2154 172.5385 0001191  90.3101 269.8027 15.08837291120814,6917.889,95.438,540.578,538.93,0.0
51991.0,STARLINK-3652,PAYLOAD,2024-05-08 11:40:42,15.08845288,0.0001155,53.2155,167.7801,86.8095,273.3029,4.3646e-06,-2.18e-06,0.0,0 STARLINK-3652,1 51991U 22025AM  24129.48660680 -.00000218  00000-0  43646-5 0  9992,2 51991  53.2155 167.7801 0001155  86.8095 273.3029 15.08845288120970,6917.864,95.437,540.528,538.93,0.0
51991.0,STARLINK-3652,PAYLOAD,2024-05-08 19:37:38,15.08848457,0.0001217,53.2155,166.2933,88.232,271.8812,1.6843e-05,-2e-07,0.0,0 STARLINK-3652,1 51991U 22025AM  24129.81780277 -.00000020  00000-0  16843-4 0  9993,2 51991  53.2155 166.2933 0001217  88.2320 271.8812 15.08848457119934,6917.855,95.437,540.561,538.878,0.0
51991.0,STARLINK-3652,PAYLOAD,2024-05-09 11:31:29,15.08845535,0.0001348,53.2149,163.3194,81.404,278.7104,0.00024605,3.631e-05,0.0,0 STARLINK-3652,1 51991U 22025AM  24130.48020466  .00003631  00000-0  24605-3 0  9999,2 51991  53.2149 163.3194 0001348  81.4040 278.7104 15.08845535120030,6917.863,95.437,540.661,538.796,0.0
51991.0,STARLINK-3652,PAYLOAD,2024-05-10 11:22:17,15.08837775,0.0001151,53.2143,158.8576,82.9657,277.1466,0.00018556,2.666e-05,0.0,0 STARLINK-3652,1 51991U 22025AM  24131.47380997  .00002666  00000-0  18556-3 0  9992,2 51991  53.2143 158.8576 0001151  82.9657 277.1466 15.08837775121277,6917.887,95.438,540.548,538.956,0.0
51991.0,STARLINK-3652,PAYLOAD,2024-05-10 19:19:12,15.0884414,0.0001495,53.2161,157.37,94.9288,265.1874,0.00014136,1.963e-05,0.0,0 STARLINK-3652,1 51991U 22025AM  24131.80500739  .00001963  00000-0  14136-3 0  9996,2 51991  53.2161 157.3700 0001495  94.9288 265.1874 15.08844140120233,6917.868,95.437,540.767,538.699,0.0
